<?xml version="1.0" encoding="UTF-8"?>
<gpx version="1.1" creator="pi-gadget">
  <trk><name>Wardriving</name><trkseg>
    <trkpt lat="46.04854573" lon="-118.39170125"><time>2026-03-02T15:47:46Z</time></trkpt>
    <trkpt lat="46.04841913" lon="-118.39161821"><time>2026-03-02T15:47:55Z</time></trkpt>
    <trkpt lat="46.04839383" lon="-118.39158819"><time>2026-03-02T15:48:05Z</time></trkpt>
    <trkpt lat="46.04841176" lon="-118.39157759"><time>2026-03-02T15:48:14Z</time></trkpt>
    <trkpt lat="46.04843563" lon="-118.39159068"><time>2026-03-02T15:48:23Z</time></trkpt>
    <trkpt lat="46.04840769" lon="-118.39158960"><time>2026-03-02T15:48:32Z</time></trkpt>
    <trkpt lat="46.04841981" lon="-118.39154487"><time>2026-03-02T15:48:42Z</time></trkpt>
    <trkpt lat="46.04831547" lon="-118.39148144"><time>2026-03-02T15:48:51Z</time></trkpt>
    <trkpt lat="46.04833688" lon="-118.39147852"><time>2026-03-02T15:49:01Z</time></trkpt>
    <trkpt lat="46.04831989" lon="-118.39146188"><time>2026-03-02T15:49:10Z</time></trkpt>
    <trkpt lat="46.04845226" lon="-118.39155869"><time>2026-03-02T15:49:19Z</time></trkpt>
    <trkpt lat="46.04847473" lon="-118.39160902"><time>2026-03-02T15:49:29Z</time></trkpt>
    <trkpt lat="46.04848914" lon="-118.39160573"><time>2026-03-02T15:49:38Z</time></trkpt>
    <trkpt lat="46.04837142" lon="-118.39150950"><time>2026-03-02T15:49:47Z</time></trkpt>
    <trkpt lat="46.04838056" lon="-118.39150828"><time>2026-03-02T15:49:56Z</time></trkpt>
    <trkpt lat="46.04838056" lon="-118.39150828"><time>2026-03-02T15:50:06Z</time></trkpt>
    <trkpt lat="46.04838056" lon="-118.39150828"><time>2026-03-02T15:50:15Z</time></trkpt>
    <trkpt lat="46.04838056" lon="-118.39150828"><time>2026-03-02T15:50:24Z</time></trkpt>
    <trkpt lat="46.04838056" lon="-118.39150828"><time>2026-03-02T15:50:34Z</time></trkpt>
    <trkpt lat="46.04838056" lon="-118.39150828"><time>2026-03-02T15:50:43Z</time></trkpt>
    <trkpt lat="46.04838056" lon="-118.39150828"><time>2026-03-02T15:50:52Z</time></trkpt>
    <trkpt lat="46.04838056" lon="-118.39150828"><time>2026-03-02T15:51:01Z</time></trkpt>
  </trkseg></trk>
</gpx>
